IRIDIUM 119             
1 42959U 17061E   25342.30980034  .00000380  00000+0  12876-3 0  9994
2 42959  86.3958 105.0669 0001783  92.3430 267.7970 14.34216274427451
IRIDIUM 107             
1 42960U 17061F   25342.32882773  .00000519  00000+0  17813-3 0  9999
2 42960  86.3963 105.0792 0001817 106.7239 253.4156 14.34217783427466
IRIDIUM 132             
1 42961U 17061G   25342.33516605  .00000619  00000+0  21410-3 0  9998
2 42961  86.3962 105.0573 0001969  98.6135 261.5284 14.34221127427464
IRIDIUM 136             
1 42962U 17061H   25342.29711502 -.00000196  00000+0 -76979-4 0  9990
2 42962  86.3964 105.0792 0001700  93.2839 266.8552 14.34216202427470
IRIDIUM 139             
1 42963U 17061J   25342.30345801  .00000354  00000+0  11952-3 0  9991
2 42963  86.3964 105.1352 0001973  99.9294 260.2124 14.34217454427488
IRIDIUM 125             
1 42964U 17061K   25342.29076284  .00000602  00000+0  20787-3 0  9998
2 42964  86.3966 105.1980 0001453 105.4402 254.6955 14.34221195427492
IRIDIUM 135             
1 43070U 17083A   25342.26489568  .00000189  00000+0  60304-4 0  9991
2 43070  86.3972  41.8150 0002224  94.1009 266.0441 14.34219205416783
IRIDIUM 138             
1 43071U 17083B   25342.22049951  .00000155  00000+0  48216-4 0  9997
2 43071  86.3986  41.4995 0001799  88.2824 271.8578 14.34217750416763
